CCSDS_OEM_VERS = 1.0
CREATION_DATE  = 2017-05-11T11:04:23
ORIGINATOR     = GMAT USER

META_START
OBJECT_NAME          = MOPSSat_alt_35785_km_RAAN_0_112
OBJECT_ID            = SatId
CENTER_NAME          = Earth
REF_FRAME            = EME2000
TIME_SYSTEM          = UTC
START_TIME           = 2017-01-01T00:00:00.000
USEABLE_START_TIME   = 2017-01-01T00:00:00.000
USEABLE_STOP_TIME    = 2017-01-02T00:00:00.000
STOP_TIME            = 2017-01-02T00:00:00.000
INTERPOLATION        = Lagrange
INTERPOLATION_DEGREE = 7 
META_STOP


                                                                                   

2017-01-01T00:27:30.000   3.325607787089475e+04   6.184192022827639e+03   1.079115315918511e+01  -5.737459718050046e-01   3.712776449367487e+00   6.477409536572794e-03
2017-01-01T00:27:40.000   3.325032328717942e+04   6.221316595877035e+03   1.085592162232937e+01  -5.771706258497268e-01   3.712137608952093e+00   6.476282136679863e-03
2017-01-01T00:27:50.000   3.324453446158472e+04   6.258434762108712e+03   1.092067877954986e+01  -5.805943351780719e-01   3.711495011336470e+00   6.475148221864470e-03
2017-01-01T00:28:00.000   3.323871140358431e+04   6.295546483959668e+03   1.098542456571312e+01  -5.840170943565357e-01   3.710848658347930e+00   6.474007795334419e-03
2017-01-01T00:28:10.000   3.323285412270822e+04   6.332651723865626e+03   1.105015891568369e+01  -5.874388979543523e-01   3.710198551824214e+00   6.472860860315594e-03
2017-01-01T00:28:20.000   3.322696262860371e+04   6.369750443905207e+03   1.111488176370334e+01  -5.908597405107412e-01   3.709544693620212e+00   6.471707420063870e-03
2017-01-01T00:28:30.000   3.322103693095501e+04   6.406842606279795e+03   1.117959304422818e+01  -5.942796165791276e-01   3.708887085599074e+00   6.470547477849376e-03
2017-01-01T00:28:40.000   3.321507703951431e+04   6.443928173124513e+03   1.124429269159891e+01  -5.976985207097423e-01   3.708225729635623e+00   6.469381036962546e-03
2017-01-01T00:28:50.000   3.320908296396743e+04   6.481007107345278e+03   1.130898064150118e+01  -6.011164475268028e-01   3.707560627601449e+00   6.468208100687792e-03
2017-01-01T00:29:00.000   3.320305471406769e+04   6.518079371781893e+03   1.137365682950548e+01  -6.045333916513707e-01   3.706891781379746e+00   6.467028672329724e-03
2017-01-01T00:29:10.000   3.319699229960625e+04   6.555144929397521e+03   1.143832119139770e+01  -6.079493477188395e-01   3.706219192862028e+00   6.465842755207301e-03
2017-01-01T00:29:20.000   3.319089573048583e+04   6.592203742797800e+03   1.150297366234018e+01  -6.113643103345825e-01   3.705542863956286e+00   6.464650352668301e-03
2017-01-01T00:29:30.000   3.318476501666722e+04   6.629255774588294e+03   1.156761417749534e+01  -6.147782741069612e-01   3.704862796581050e+00   6.463451468078790e-03
2017-01-01T00:29:40.000   3.317860016816737e+04   6.666300987374234e+03   1.163224267202516e+01  -6.181912336472967e-01   3.704178992665169e+00   6.462246104822738e-03
2017-01-01T00:29:50.000   3.317240119512309e+04   6.703339343405303e+03   1.169685908047158e+01  -6.216031835372073e-01   3.703491454154857e+00   6.461034266314429e-03
2017-01-01T00:30:00.000   3.316616810770691e+04   6.740370805054667e+03   1.176146333759214e+01  -6.250141183727097e-01   3.702800183004362e+00   6.459815955982020e-03
2017-01-01T00:30:10.000   3.315990091615958e+04   6.777395334630293e+03   1.182605537803082e+01  -6.284240327468622e-01   3.702105181179559e+00   6.458591177273877e-03
2017-01-01T00:30:20.000   3.315359963064881e+04   6.814412895210615e+03   1.189063513777593e+01  -6.318329213267455e-01   3.701406450642274e+00   6.457359933630987e-03
2017-01-01T00:30:30.000   3.314726426141012e+04   6.851423449808989e+03   1.195520255270241e+01  -6.352407787765196e-01   3.700703993365895e+00   6.456122228514430e-03
2017-01-01T00:30:40.000   3.314089481871555e+04   6.888426961562871e+03   1.201975755890191e+01  -6.386475997748688e-01   3.699997811331892e+00   6.454878065399252e-03
2017-01-01T00:30:50.000   3.313449131295140e+04   6.925423393253680e+03   1.208430009184513e+01  -6.420533789707576e-01   3.699287906538440e+00   6.453627447789642e-03
2017-01-01T00:31:00.000   3.312805375456173e+04   6.962412707663715e+03   1.214883008700445e+01  -6.454581110163612e-01   3.698574280994126e+00   6.452370379207888e-03
2017-01-01T00:31:10.000   3.312158215404653e+04   6.999394867575860e+03   1.221334747985349e+01  -6.488617905670302e-01   3.697856936717749e+00   6.451106863193980e-03
2017-01-01T00:31:20.000   3.311507652202824e+04   7.036369835419016e+03   1.227785220524850e+01  -6.522644122487258e-01   3.697135875745680e+00   6.449836903318605e-03
2017-01-01T00:31:30.000   3.310853686916379e+04   7.073337573746298e+03   1.234234419826259e+01  -6.556659707019944e-01   3.696411100122094e+00   6.448560503165940e-03
2017-01-01T00:31:40.000   3.310196320617923e+04   7.110298045043078e+03   1.240682339385090e+01  -6.590664605643283e-01   3.695682611902817e+00   6.447277666340408e-03
2017-01-01T00:31:50.000   3.309535554371897e+04   7.147251212575151e+03   1.247128972833023e+01  -6.624658765482172e-01   3.694950413138591e+00   6.445988396437206e-03
2017-01-01T00:32:00.000   3.308871389249649e+04   7.184197039538577e+03   1.253574313789587e+01  -6.658642133629382e-01   3.694214505891781e+00   6.444692697071749e-03
2017-01-01T00:32:10.000   3.308203826325581e+04   7.221135489279312e+03   1.260018355900482e+01  -6.692614657347826e-01   3.693474892232087e+00   6.443390571872092e-03
2017-01-01T00:32:20.000   3.307532866687412e+04   7.258066524702695e+03   1.266461092734552e+01  -6.726576283527147e-01   3.692731574247912e+00   6.442082024498986e-03
2017-01-01T00:32:30.000   3.306858511427753e+04   7.294990108761057e+03   1.272902517868865e+01  -6.760526959132770e-01   3.691984554037013e+00   6.440767058629405e-03
2017-01-01T00:32:40.000   3.306180761645966e+04   7.331906204344986e+03   1.279342624869727e+01  -6.794466631105908e-01   3.691233833708558e+00   6.439445677960140e-03
2017-01-01T00:32:50.000   3.305499618447878e+04   7.368814774313480e+03   1.285781407297957e+01  -6.828395246391743e-01   3.690479415382785e+00   6.438117886207223e-03
2017-01-01T00:33:00.000   3.304815082944889e+04   7.405715781530374e+03   1.292218858715228e+01  -6.862312751972798e-01   3.689721301190012e+00   6.436783687104175e-03
2017-01-01T00:33:10.000   3.304127156253753e+04   7.442609188877785e+03   1.298654972686426e+01  -6.896219094881484e-01   3.688959493270385e+00   6.435443084401568e-03
2017-01-01T00:33:20.000   3.303435839494214e+04   7.479494959388417e+03   1.305089742802722e+01  -6.930114222321949e-01   3.688193993771253e+00   6.434096081862377e-03
2017-01-01T00:33:30.000   3.302741133790508e+04   7.516373056157372e+03   1.311523162666187e+01  -6.963998081589011e-01   3.687424804848815e+00   6.432742683264915e-03
2017-01-01T00:33:40.000   3.302043040271393e+04   7.553243442342321e+03   1.317955225889829e+01  -6.997870620068484e-01   3.686651928668142e+00   6.431382892402862e-03
2017-01-01T00:33:50.000   3.301341560068334e+04   7.590106081251202e+03   1.324385926112879e+01  -7.031731785317725e-01   3.685875367401173e+00   6.430016713081753e-03
2017-01-01T00:34:00.000   3.300636694318108e+04   7.626960936210695e+03   1.330815256977863e+01  -7.065581524945059e-01   3.685095123229575e+00   6.428644149123994e-03
2017-01-01T00:34:10.000   3.299928444163065e+04   7.663807970553081e+03   1.337243212128295e+01  -7.099419786597881e-01   3.684311198345025e+00   6.427265204369374e-03
2017-01-01T00:34:20.000   3.299216810751626e+04   7.700647147579144e+03   1.343669785202211e+01  -7.133246517928450e-01   3.683523594949754e+00   6.425879882675986e-03
2017-01-01T00:34:30.000   3.298501795239098e+04   7.737478430529422e+03   1.350094969827153e+01  -7.167061666567952e-01   3.682732315257440e+00   6.424488187921813e-03
2017-01-01T00:34:40.000   3.297783398785458e+04   7.774301782692370e+03   1.356518759639040e+01  -7.200865180225823e-01   3.681937361490740e+00   6.423090124000409e-03
2017-01-01T00:34:50.000   3.297061622565153e+04   7.811117166920061e+03   1.362941148197681e+01  -7.234657006245699e-01   3.681138735892119e+00   6.421685694839934e-03
2017-01-01T00:35:00.000   3.296336467755289e+04   7.847924546215441e+03   1.369362129089220e+01  -7.268437092144270e-01   3.680336440710782e+00   6.420274904380172e-03
2017-01-01T00:35:10.000   3.295607935539981e+04   7.884723883514008e+03   1.375781695888051e+01  -7.302205385411065e-01   3.679530478207466e+00   6.418857756580957e-03
2017-01-01T00:35:20.000   3.294876027093628e+04   7.921515142530468e+03   1.382199842304515e+01  -7.335961834285570e-01   3.678720850635939e+00   6.417434255389597e-03
2017-01-01T00:35:30.000   3.294140743597544e+04   7.958298286914318e+03   1.388616562037594e+01  -7.369706386982428e-01   3.677907560261377e+00   6.416004404773264e-03
2017-01-01T00:35:40.000   3.293402086236257e+04   7.995073280441456e+03   1.395031848808334e+01  -7.403438991867459e-01   3.677090609356267e+00   6.414568208711725e-03
2017-01-01T00:35:50.000   3.292660056206596e+04   8.031840086536859e+03   1.401445696276581e+01  -7.437159597019389e-01   3.676270000210452e+00   6.413125671215076e-03
2017-01-01T00:36:00.000   3.291914654711060e+04   8.068598668629447e+03   1.407858098102885e+01  -7.470868150556089e-01   3.675445735123774e+00   6.411676796310758e-03
2017-01-01T00:36:10.000   3.291165882957630e+04   8.105348990151724e+03   1.414269047948431e+01  -7.504564600634142e-01   3.674617816405868e+00   6.410221588043211e-03
2017-01-01T00:36:20.000   3.290413742167407e+04   8.142091014187594e+03   1.420678539413614e+01  -7.538248895126649e-01   3.673786246384579e+00   6.408760050488623e-03
2017-01-01T00:36:30.000   3.289658233564489e+04   8.178824703947374e+03   1.427086566120895e+01  -7.571920982058361e-01   3.672951027394769e+00   6.407292187735300e-03
